OBJECT_NAME,OBJECT_ID,EPOCH,MEAN_MOTION,ECCENTRICITY,INCLINATION,RA_OF_ASC_NODE,ARG_OF_PERICENTER,MEAN_ANOMALY,EPHEMERIS_TYPE,CLASSIFICATION_TYPE,NORAD_CAT_ID,ELEMENT_SET_NO,REV_AT_EPOCH,BSTAR,MEAN_MOTION_DOT,MEAN_MOTION_DDOT
ONEWEB-0399,2021-132L,2026-07-11T12:52:10.182144,13.11416185,.00016244,87.8889,16.2217,74.0022,286.1285,0,U,50479,999,21879,-.1385612E-2,-.478E-5,0
ONEWEB-0400,2021-132M,2026-07-11T19:41:18.551040,13.18684553,.0002091,87.9195,330.5463,96.8567,263.2803,0,U,50480,999,22485,-.60786E-3,-.227E-5,0
ONEWEB-0401,2021-132N,2026-07-11T20:46:53.272704,13.18686439,.0001738,87.9194,330.5348,102.4059,257.7268,0,U,50481,999,22486,.57536E-4,.36E-6,0
ONEWEB-0402,2021-132P,2026-07-11T19:53:27.476736,13.18687201,.0001496,87.9191,330.5311,106.7299,253.3997,0,U,50482,999,22488,-.12155E-4,.8E-7,0
ONEWEB-0403,2021-132Q,2026-07-11T20:29:53.431296,13.18686702,.000179,87.9192,330.5504,92.5515,267.5822,0,U,50483,999,22484,.52331E-4,.34E-6,0
ONEWEB-0404,2021-132R,2026-07-11T12:25:18.899040,13.11414210,.0001896,87.8884,16.2225,80.3168,279.8174,0,U,50484,999,21888,.3187971E-3,.126E-5,0
ONEWEB-0405,2021-132S,2026-07-11T20:49:18.239808,13.18684568,.0002369,87.9197,330.5327,97.2358,262.9044,0,U,50485,999,22524,.43789E-5,.15E-6,0
ONEWEB-0406,2021-132T,2026-07-11T20:37:10.045920,13.18687335,.0001878,87.9190,330.5494,80.6505,279.4839,0,U,50486,999,22487,.24228E-3,.108E-5,0
ONEWEB-0407,2021-132U,2026-07-11T20:27:26.565984,13.18688210,.0001945,87.9196,330.5440,103.3398,256.7951,0,U,50487,999,22481,-.65689E-6,.13E-6,0
ONEWEB-0409,2021-132V,2026-07-11T12:22:52.915872,13.11414239,.00019331,87.8868,16.2115,83.9443,276.1905,0,U,50488,999,21877,.35997968E-3,.14E-5,0
ONEWEB-0412,2021-132W,2026-07-11T20:10:27.641280,13.18686583,.0001617,87.9188,330.5541,103.6691,256.4621,0,U,50489,999,22490,-.98941E-4,-.26E-6,0
ONEWEB-0413,2021-132X,2026-07-11T20:17:44.642976,13.18688049,.0001745,87.9184,330.5495,108.5875,251.5447,0,U,50490,999,22484,-.15101E-3,-.47E-6,0
ONEWEB-0414,2021-132Y,2026-07-11T19:55:53.562720,13.18686338,.0001731,87.9193,330.5371,97.1295,263.0034,0,U,50491,999,22487,-.13877E-3,-.42E-6,0
ONEWEB-0417,2021-132Z,2026-07-11T20:08:01.689216,13.18686747,.0001888,87.9188,330.5528,91.6360,268.4988,0,U,50492,999,22485,-.95286E-4,-.25E-6,0
ONEWEB-0418,2021-132AA,2026-07-11T20:22:23.834208,13.18686162,.0001908,87.9186,330.5523,89.2680,270.8670,0,U,50493,999,22491,-.89254E-4,-.22E-6,0
ONEWEB-0419,2021-132AB,2026-07-11T20:49:43.327776,13.18666231,.0002093,87.9192,330.5488,93.1803,266.9569,0,U,50494,999,22483,.89624E-5,.16E-6,0
ONEWEB-0420,2021-132AC,2026-07-11T18:09:02.278368,13.18686918,.0001967,87.9184,330.5716,103.3986,256.7366,0,U,50495,999,22481,-.12818E-3,-.38E-6,0
ONEWEB-0421,2021-132AD,2026-07-11T19:48:37.285920,13.18686060,.0001375,87.9182,330.5558,99.0960,261.0328,0,U,50496,999,22486,.21954E-3,.99E-6,0
ONEWEB-0424,2021-132AE,2026-07-11T20:42:01.817856,13.18686848,.0002179,87.9192,330.5480,94.1346,266.0035,0,U,50497,999,22489,.18608E-4,.2E-6,0
ONEWEB-0426,2021-132AF,2026-07-11T19:42:32.593248,13.18685622,.000147,87.9193,330.5475,77.7416,282.3880,0,U,50498,999,22483,-.13176E-5,.12E-6,0
ONEWEB-0427,2021-132AG,2026-07-11T20:39:36.245088,13.18686732,.0001885,87.9196,330.5284,90.7000,269.4349,0,U,50499,999,22486,.80228E-4,.45E-6,0
ONEWEB-0429,2021-132AH,2026-07-11T20:20:09.713760,13.18687030,.0001902,87.9187,330.5538,100.7341,259.4005,0,U,50500,999,22483,-.87061E-4,-.21E-6,0
ONEWEB-0430,2021-132AJ,2026-07-11T20:03:10.014048,13.18687979,.0002203,87.9195,330.5549,103.8871,256.2506,0,U,50501,999,22487,-.11536E-3,-.33E-6,0
ONEWEB-0432,2021-132AK,2026-07-11T19:38:42.401184,13.18685698,.0002366,87.9193,330.5443,99.1827,260.9573,0,U,50502,999,22482,-.62221E-4,-.12E-6,0
ONEWEB-0440,2021-132AL,2026-07-11T20:32:18.471840,13.18687025,.0001608,87.9196,330.5487,105.2677,254.8633,0,U,50503,999,22482,-.13845E-4,.7E-7,0
ONEWEB-0450,2021-132AM,2026-07-11T20:22:47.925120,13.18686760,.0001979,87.9185,330.5524,102.5179,257.6174,0,U,50504,999,22485,-.62712E-4,-.12E-6,0
ONEWEB-0410,2022-012A,2026-07-11T12:24:15.749280,13.17649907,.00019891,87.9152,1.0192,52.8851,307.2462,0,U,51622,999,21690,.20791037E-4,.21E-6,0
ONEWEB-0411,2022-012B,2026-07-11T14:24:40.161312,13.10377731,.0002195,87.8827,31.4026,97.6730,262.4647,0,U,51623,999,21248,-.17599E-3,-.49E-6,0
ONEWEB-0415,2022-012C,2026-07-11T14:19:46.061760,13.10378278,.0002152,87.8824,31.4021,87.2395,272.8979,0,U,51624,999,21248,-.24688E-3,-.74E-6,0
ONEWEB-0416,2022-012D,2026-07-11T14:36:53.822592,13.10376701,.0002219,87.8816,31.4161,84.8571,275.2810,0,U,51625,999,21252,.13018E-2,.467E-5,0
